{"type": "FeatureCollection", "features": [ {"type": "Feature", "properties": {"norad_id": 65943, "name": "E-KAGAKU-1", "group": "stations", "lat": 33.82739790873313, "lon": -163.06303216257726, "alt_km": 388.66733622104675, "timestamp": "2025-12-07T18:50:15.531535+00:00", "meta": {"OBJECT_NAME": "E-KAGAKU-1", "OBJECT_ID": "1998-067XQ", "EPOCH": "2025-12-06T18:01:16.505472", "MEAN_MOTION": 15.5838918, "ECCENTRICITY": 0.00030246, "INCLINATION": 51.6289, "RA_OF_ASC_NODE": 170.0575, "ARG_OF_PERICENTER": 170.5434, "MEAN_ANOMALY": 189.5616, "EPHEMERIS_TYPE": 0, "CLASSIFICATION_TYPE": "U", "NORAD_CAT_ID": 65943, "ELEMENT_SET_NO": 999, "REV_AT_EPOCH": 892, "BSTAR": 0.0011230983, "MEAN_MOTION_DOT": 0.00087541, "MEAN_MOTION_DDOT": 0}, "tle": {"line1": "1 65943U 98067XQ  25340.75088548  .00087541  00000+0  11231-2 0  9990", "line2": "2 65943  51.6289 170.0575 0003024 170.5434 189.5616 15.58389180  8921"}}, "geometry": {"type": "Point", "coordinates": [-163.06303216257726, 33.82739790873313]}}, {"type": "Feature", "properties": {"norad_id": 66052, "name": "HRC MONOBLOCK CAMERA", "group": "stations", "lat": 42.52429957612593, "lon": -60.4059017745355, "alt_km": 398.3103801120096, "timestamp": "2025-12-07T18:50:15.531545+00:00", "meta": {"OBJECT_NAME": "HRC MONOBLOCK CAMERA", "OBJECT_ID": "1998-067XR", "EPOCH": "2025-12-07T05:58:18.700320", "MEAN_MOTION": 15.53604712, "ECCENTRICITY": 0.00040184, "INCLINATION": 51.6286, "RA_OF_ASC_NODE": 168.8742, "ARG_OF_PERICENTER": 162.1137, "MEAN_ANOMALY": 197.9995, "EPHEMERIS_TYPE": 0, "CLASSIFICATION_TYPE": "U", "NORAD_CAT_ID": 66052, "ELEMENT_SET_NO": 999, "REV_AT_EPOCH": 798, "BSTAR": 0.00071473095, "MEAN_MOTION_DOT": 0.00046223, "MEAN_MOTION_DDOT": 0}, "tle": {"line1": "1 66052U 98067XR  25341.24882755  .00046223  00000+0  71473-3 0  9996", "line2": "2 66052  51.6286 168.8742 0004018 162.1137 197.9995 15.53604712  7986"}}, "geometry": {"type": "Point", "coordinates": [-60.4059017745355, 42.52429957612593]}}, {"type": "Feature", "properties": {"norad_id": 66174, "name": "HTV-X1", "group": "stations", "lat": 51.56348539726137, "lon": -99.67250699719368, "alt_km": 412.7182382592646, "timestamp": "2025-12-07T18:50:15.531555+00:00", "meta": {"OBJECT_NAME": "HTV-X1", "OBJECT_ID": "2025-241A", "EPOCH": "2025-12-07T04:30:36.916128", "MEAN_MOTION": 15.49384117, "ECCENTRICITY": 0.00034959, "INCLINATION": 51.6302, "RA_OF_ASC_NODE": 169.9669, "ARG_OF_PERICENTER": 214.2568, "MEAN_ANOMALY": 145.8196, "EPHEMERIS_TYPE": 0, "CLASSIFICATION_TYPE": "U", "NORAD_CAT_ID": 66174, "ELEMENT_SET_NO": 999, "REV_AT_EPOCH": 51, "BSTAR": 0.00024795554, "MEAN_MOTION_DOT": 0.00013419, "MEAN_MOTION_DDOT": 0}, "tle": {"line1": "1 66174U 25241A   25341.18792727  .00013419  00000+0  24796-3 0  9994", "line2": "2 66174  51.6302 169.9669 0003495 214.2568 145.8196 15.49384117   511"}}, "geometry": {"type": "Point", "coordinates": [-99.67250699719368, 51.56348539726137]}}, {"type": "Feature", "properties": {"norad_id": 66515, "name": "SZ-21 MODULE", "group": "stations", "lat": -28.21234979342786, "lon": -96.34349778686236, "alt_km": 379.7678638838315, "timestamp": "2025-12-07T18:50:15.531565+00:00", "meta": {"OBJECT_NAME": "SZ-21 MODULE", "OBJECT_ID": "2025-246C", "EPOCH": "2025-12-07T05:36:05.793696", "MEAN_MOTION": 15.6209552, "ECCENTRICITY": 0.00061886, "INCLINATION": 41.4776, "RA_OF_ASC_NODE": 49.6264, "ARG_OF_PERICENTER": 229.5557, "MEAN_ANOMALY": 130.4743, "EPHEMERIS_TYPE": 0, "CLASSIFICATION_TYPE": "U", "NORAD_CAT_ID": 66515, "ELEMENT_SET_NO": 999, "REV_AT_EPOCH": 358, "BSTAR": 0.00038778265, "MEAN_MOTION_DOT": 0.00034807, "MEAN_MOTION_DDOT": 0}, "tle": {"line1": "1 66515U 25246C   25341.23340039  .00034807  00000+0  38778-3 0  9998", "line2": "2 66515  41.4776  49.6264 0006188 229.5557 130.4743 15.62095520  3586"}}, "geometry": {"type": "Point", "coordinates": [-96.34349778686236, -28.21234979342786]}}, {"type": "Feature", "properties": {"norad_id": 66645, "name": "SHENZHOU-22", "group": "stations", "lat": 10.48967199762037, "lon": 58.88328941097044, "alt_km": 383.34046655859856, "timestamp": "2025-12-07T18:50:15.531575+00:00", "meta": {"OBJECT_NAME": "SHENZHOU-22", "OBJECT_ID": "2025-272A", "EPOCH": "2025-12-07T06:28:07.735872", "MEAN_MOTION": 15.58832972, "ECCENTRICITY": 0.00093583, "INCLINATION": 41.4682, "RA_OF_ASC_NODE": 49.9091, "ARG_OF_PERICENTER": 347.392, "MEAN_ANOMALY": 12.6683, "EPHEMERIS_TYPE": 0, "CLASSIFICATION_TYPE": "U", "NORAD_CAT_ID": 66645, "ELEMENT_SET_NO": 999, "REV_AT_EPOCH": 26300, "BSTAR": 0.0003547841, "MEAN_MOTION_DOT": 0.00028044, "MEAN_MOTION_DDOT": 0}, "tle": {"line1": "1 66645U 25272A   25341.26953398  .00028044  00000+0  35478-3 0  9992", "line2": "2 66645  41.4682  49.9091 0009358 347.3920  12.6683 15.58832972263006"}}, "geometry": {"type": "Point", "coordinates": [58.88328941097044, 10.48967199762037]}}, {"type": "Feature", "properties": {"norad_id": 66646, "name": "CZ-2F R/B", "group": "stations", "lat": 3.9878035307360014, "lon": 44.82771134183002, "alt_km": 135.61445193139025, "timestamp": "2025-12-07T18:50:15.531589+00:00", "meta": {"OBJECT_NAME": "CZ-2F R/B", "OBJECT_ID": "2025-272B", "EPOCH": "2025-12-07T13:00:15.028704", "MEAN_MOTION": 16.47453798, "ECCENTRICITY": 0.002214, "INCLINATION": 41.4535, "RA_OF_ASC_NODE": 41.9834, "ARG_OF_PERICENTER": 229.6731, "MEAN_ANOMALY": 130.2205, "EPHEMERIS_TYPE": 0, "CLASSIFICATION_TYPE": "U", "NORAD_CAT_ID": 66646, "ELEMENT_SET_NO": 999, "REV_AT_EPOCH": 200, "BSTAR": 0.00015075, "MEAN_MOTION_DOT": 0.11903621, "MEAN_MOTION_DDOT": 8.0762e-06}, "tle": {"line1": "1 66646U 25272B   25341.54184061  .11903621  80762-5  15075-3 0  9992", "line2": "2 66646  41.4535  41.9834 0022140 229.6731 130.2205 16.47453798  2009"}}, "geometry": {"type": "Point", "coordinates": [44.82771134183002, 3.9878035307360014]}}, {"type": "Feature", "properties": {"norad_id": 66664, "name": "SOYUZ-MS 28", "group": "stations", "lat": 51.56348526525487, "lon": -99.6725023226918, "alt_km": 412.7182381779003, "timestamp": "2025-12-07T18:50:15.531600+00:00", "meta": {"OBJECT_NAME": "SOYUZ-MS 28", "OBJECT_ID": "2025-275A", "EPOCH": "2025-12-07T04:30:36.916128", "MEAN_MOTION": 15.49384117, "ECCENTRICITY": 0.00034959, "INCLINATION": 51.6302, "RA_OF_ASC_NODE": 169.9669, "ARG_OF_PERICENTER": 214.2568, "MEAN_ANOMALY": 145.8196, "EPHEMERIS_TYPE": 0, "CLASSIFICATION_TYPE": "U", "NORAD_CAT_ID": 66664, "ELEMENT_SET_NO": 999, "REV_AT_EPOCH": 128, "BSTAR": 0.00024795554, "MEAN_MOTION_DOT": 0.00013419, "MEAN_MOTION_DDOT": 0}, "tle": {"line1": "1 66664U 25275A   25341.18792727  .00013419  00000+0  24796-3 0  9995", "line2": "2 66664  51.6302 169.9669 0003495 214.2568 145.8196 15.49384117  1280"}}, "geometry": {"type": "Point", "coordinates": [-99.6725023226918, 51.56348526525487]}}, {"type": "Feature", "properties": {"norad_id": 66906, "name": "1998-067XS", "group": "stations", "lat": 49.06719324072727, "lon": -79.02641089041722, "alt_km": 408.6647159486911, "timestamp": "2025-12-07T18:50:15.531610+00:00", "meta": {"OBJECT_NAME": "1998-067XS", "OBJECT_ID": "1998-067XS", "EPOCH": "2025-12-06T23:49:06.838464", "MEAN_MOTION": 15.5014949, "ECCENTRICITY": 0.00041336, "INCLINATION": 51.6299, "RA_OF_ASC_NODE": 170.9119, "ARG_OF_PERICENTER": 177.8938, "MEAN_ANOMALY": 182.2069, "EPHEMERIS_TYPE": 0, "CLASSIFICATION_TYPE": "U", "NORAD_CAT_ID": 66906, "ELEMENT_SET_NO": 999, "REV_AT_EPOCH": 72, "BSTAR": 0.00062682756, "MEAN_MOTION_DOT": 0.00035676, "MEAN_MOTION_DDOT": 0}, "tle": {"line1": "1 66906U 98067XS  25340.99244026  .00035676  00000+0  62683-3 0  9991", "line2": "2 66906  51.6299 170.9119 0004133 177.8938 182.2069 15.50149490   728"}}, "geometry": {"type": "Point", "coordinates": [-79.02641089041722, 49.06719324072727]}}, {"type": "Feature", "properties": {"norad_id": 66907, "name": "1998-067XT", "group": "stations", "lat": 47.70308838002185, "lon": -73.58002285413949, "alt_km": 408.26705568176567, "timestamp": "2025-12-07T18:50:15.531619+00:00", "meta": {"OBJECT_NAME": "1998-067XT", "OBJECT_ID": "1998-067XT", "EPOCH": "2025-12-07T05:59:38.363712", "MEAN_MOTION": 15.50548845, "ECCENTRICITY": 0.00050774, "INCLINATION": 51.6298, "RA_OF_ASC_NODE": 169.6308, "ARG_OF_PERICENTER": 196.245, "MEAN_ANOMALY": 163.8377, "EPHEMERIS_TYPE": 0, "CLASSIFICATION_TYPE": "U", "NORAD_CAT_ID": 66907, "ELEMENT_SET_NO": 999, "REV_AT_EPOCH": 76, "BSTAR": 0.0013100071, "MEAN_MOTION_DOT": 0.00076543, "MEAN_MOTION_DDOT": 0}, "tle": {"line1": "1 66907U 98067XT  25341.24974958  .00076543  00000+0  13100-2 0  9992", "line2": "2 66907  51.6298 169.6308 0005077 196.2450 163.8377 15.50548845   763"}}, "geometry": {"type": "Point", "coordinates": [-73.58002285413949, 47.70308838002185]}}, {"type": "Feature", "properties": {"norad_id": 66908, "name": "1998-067XU", "group": "stations", "lat": 47.35782251899233, "lon": -72.38441284263546, "alt_km": 408.1142567027837, "timestamp": "2025-12-07T18:50:15.531629+00:00", "meta": {"OBJECT_NAME": "1998-067XU", "OBJECT_ID": "1998-067XU", "EPOCH": "2025-12-07T05:59:26.026656", "MEAN_MOTION": 15.50595365, "ECCENTRICITY": 0.00052733, "INCLINATION": 51.6295, "RA_OF_ASC_NODE": 169.6298, "ARG_OF_PERICENTER": 195.7563, "MEAN_ANOMALY": 164.3263, "EPHEMERIS_TYPE": 0, "CLASSIFICATION_TYPE": "U", "NORAD_CAT_ID": 66908, "ELEMENT_SET_NO": 999, "REV_AT_EPOCH": 76, "BSTAR": 0.0011866563, "MEAN_MOTION_DOT": 0.00069346, "MEAN_MOTION_DDOT": 0}, "tle": {"line1": "1 66908U 98067XU  25341.24960679  .00069346  00000+0  11867-2 0  9999", "line2": "2 66908  51.6295 169.6298 0005273 195.7563 164.3263 15.50595365   765"}}, "geometry": {"type": "Point", "coordinates": [-72.38441284263546, 47.35782251899233]}}]}